{"type": "FeatureCollection", "features": [ {"type": "Feature", "properties": {"norad_id": 37834, "name": "INTELSAT 18 (IS-18)", "group": "intelsat", "lat": 0.011333553052859545, "lon": -32.67355482256363, "alt_km": 35783.36947735519, "timestamp": "2025-12-05T04:52:14.989424+00:00", "meta": {"OBJECT_NAME": "INTELSAT 18 (IS-18)", "OBJECT_ID": "2011-056A", "EPOCH": "2025-12-04T12:42:38.678976", "MEAN_MOTION": 1.00270623, "ECCENTRICITY": 0.0002108, "INCLINATION": 0.0139, "RA_OF_ASC_NODE": 294.6359, "ARG_OF_PERICENTER": 322.2341, "MEAN_ANOMALY": 187.3892, "EPHEMERIS_TYPE": 0, "CLASSIFICATION_TYPE": "U", "NORAD_CAT_ID": 37834, "ELEMENT_SET_NO": 999, "REV_AT_EPOCH": 5186, "BSTAR": 0, "MEAN_MOTION_DOT": 6.8e-07, "MEAN_MOTION_DDOT": 0}, "tle": {"line1": "1 37834U 11056A   25338.52961434  .00000068  00000+0  00000+0 0  9995", "line2": "2 37834   0.0139 294.6359 0002108 322.2341 187.3892  1.00270623 51865"}}, "geometry": {"type": "Point", "coordinates": [-32.67355482256363, 0.011333553052859545]}}, {"type": "Feature", "properties": {"norad_id": 38098, "name": "INTELSAT 22 (IS-22)", "group": "intelsat", "lat": -0.022314783542288462, "lon": -140.60010959516072, "alt_km": 35781.136370793516, "timestamp": "2025-12-05T04:52:14.989435+00:00", "meta": {"OBJECT_NAME": "INTELSAT 22 (IS-22)", "OBJECT_ID": "2012-011A", "EPOCH": "2025-12-04T14:04:10.138080", "MEAN_MOTION": 1.00270945, "ECCENTRICITY": 0.0001689, "INCLINATION": 0.0066, "RA_OF_ASC_NODE": 5.2141, "ARG_OF_PERICENTER": 257.9644, "MEAN_ANOMALY": 93.6265, "EPHEMERIS_TYPE": 0, "CLASSIFICATION_TYPE": "U", "NORAD_CAT_ID": 38098, "ELEMENT_SET_NO": 999, "REV_AT_EPOCH": 523, "BSTAR": 0, "MEAN_MOTION_DOT": -4.4e-07, "MEAN_MOTION_DDOT": 0}, "tle": {"line1": "1 38098U 12011A   25338.58622845 -.00000044  00000+0  00000+0 0  9991", "line2": "2 38098   0.0066   5.2141 0001689 257.9644  93.6265  1.00270945  5235"}}, "geometry": {"type": "Point", "coordinates": [-140.60010959516072, -0.022314783542288462]}}, {"type": "Feature", "properties": {"norad_id": 38356, "name": "INTELSAT 19 (IS-19)", "group": "intelsat", "lat": -0.00858321912274034, "lon": -46.652264270182485, "alt_km": 35777.92014061706, "timestamp": "2025-12-05T04:52:14.989446+00:00", "meta": {"OBJECT_NAME": "INTELSAT 19 (IS-19)", "OBJECT_ID": "2012-030A", "EPOCH": "2025-12-04T12:50:38.628384", "MEAN_MOTION": 1.00269832, "ECCENTRICITY": 0.000349, "INCLINATION": 0.0104, "RA_OF_ASC_NODE": 327.051, "ARG_OF_PERICENTER": 292.3695, "MEAN_ANOMALY": 172.8577, "EPHEMERIS_TYPE": 0, "CLASSIFICATION_TYPE": "U", "NORAD_CAT_ID": 38356, "ELEMENT_SET_NO": 999, "REV_AT_EPOCH": 4849, "BSTAR": 0, "MEAN_MOTION_DOT": -4.2e-07, "MEAN_MOTION_DDOT": 0}, "tle": {"line1": "1 38356U 12030A   25338.53516931 -.00000042  00000+0  00000+0 0  9990", "line2": "2 38356   0.0104 327.0510 0003490 292.3695 172.8577  1.00269832 48495"}}, "geometry": {"type": "Point", "coordinates": [-46.652264270182485, -0.00858321912274034]}}, {"type": "Feature", "properties": {"norad_id": 38740, "name": "INTELSAT 20 (IS-20)", "group": "intelsat", "lat": -0.03133145428610152, "lon": -144.19269831925982, "alt_km": 35774.850729904014, "timestamp": "2025-12-05T04:52:14.989457+00:00", "meta": {"OBJECT_NAME": "INTELSAT 20 (IS-20)", "OBJECT_ID": "2012-043A", "EPOCH": "2025-12-04T10:37:41.477088", "MEAN_MOTION": 1.00270685, "ECCENTRICITY": 0.0003002, "INCLINATION": 0.0143, "RA_OF_ASC_NODE": 351.6199, "ARG_OF_PERICENTER": 199.7467, "MEAN_ANOMALY": 110.0587, "EPHEMERIS_TYPE": 0, "CLASSIFICATION_TYPE": "U", "NORAD_CAT_ID": 38740, "ELEMENT_SET_NO": 999, "REV_AT_EPOCH": 4879, "BSTAR": 0, "MEAN_MOTION_DOT": 0, "MEAN_MOTION_DDOT": 0}, "tle": {"line1": "1 38740U 12043A   25338.44284117  .00000000  00000+0  00000+0 0  9992", "line2": "2 38740   0.0143 351.6199 0003002 199.7467 110.0587  1.00270685 48793"}}, "geometry": {"type": "Point", "coordinates": [-144.19269831925982, -0.03133145428610152]}}, {"type": "Feature", "properties": {"norad_id": 38749, "name": "INTELSAT 21 (IS-21)", "group": "intelsat", "lat": 0.0382607405759622, "lon": 89.30132962123788, "alt_km": 35794.84829405681, "timestamp": "2025-12-05T04:52:14.989468+00:00", "meta": {"OBJECT_NAME": "INTELSAT 21 (IS-21)", "OBJECT_ID": "2012-045A", "EPOCH": "2025-12-04T11:44:20.063040", "MEAN_MOTION": 1.00272097, "ECCENTRICITY": 0.0002264, "INCLINATION": 0.0173, "RA_OF_ASC_NODE": 334.2609, "ARG_OF_PERICENTER": 271.1043, "MEAN_ANOMALY": 306.2818, "EPHEMERIS_TYPE": 0, "CLASSIFICATION_TYPE": "U", "NORAD_CAT_ID": 38749, "ELEMENT_SET_NO": 999, "REV_AT_EPOCH": 4857, "BSTAR": 0, "MEAN_MOTION_DOT": -2.7e-06, "MEAN_MOTION_DDOT": 0}, "tle": {"line1": "1 38749U 12045A   25338.48912110 -.00000270  00000+0  00000+0 0  9998", "line2": "2 38749   0.0173 334.2609 0002264 271.1043 306.2818  1.00272097 48573"}}, "geometry": {"type": "Point", "coordinates": [89.30132962123788, 0.0382607405759622]}}, {"type": "Feature", "properties": {"norad_id": 38867, "name": "INTELSAT 23 (IS-23)", "group": "intelsat", "lat": 0.022487454237658154, "lon": 94.28003595351078, "alt_km": 35791.08484228954, "timestamp": "2025-12-05T04:52:14.989478+00:00", "meta": {"OBJECT_NAME": "INTELSAT 23 (IS-23)", "OBJECT_ID": "2012-057A", "EPOCH": "2025-12-04T11:45:19.965888", "MEAN_MOTION": 1.00269543, "ECCENTRICITY": 0.0001743, "INCLINATION": 0.0477, "RA_OF_ASC_NODE": 108.5644, "ARG_OF_PERICENTER": 111.0898, "MEAN_ANOMALY": 337.2339, "EPHEMERIS_TYPE": 0, "CLASSIFICATION_TYPE": "U", "NORAD_CAT_ID": 38867, "ELEMENT_SET_NO": 999, "REV_AT_EPOCH": 4800, "BSTAR": 0, "MEAN_MOTION_DOT": -2.7e-06, "MEAN_MOTION_DDOT": 0}, "tle": {"line1": "1 38867U 12057A   25338.48981442 -.00000270  00000+0  00000+0 0  9996", "line2": "2 38867   0.0477 108.5644 0001743 111.0898 337.2339  1.00269543 48005"}}, "geometry": {"type": "Point", "coordinates": [94.28003595351078, 0.022487454237658154]}}, {"type": "Feature", "properties": {"norad_id": 39360, "name": "FM-6", "group": "intelsat", "lat": -0.006665249060109385, "lon": 31.139237747654327, "alt_km": 35795.37891108249, "timestamp": "2025-12-05T04:52:14.989490+00:00", "meta": {"OBJECT_NAME": "FM-6", "OBJECT_ID": "2013-058A", "EPOCH": "2025-12-04T13:10:30.278784", "MEAN_MOTION": 1.0027298, "ECCENTRICITY": 0.0002865, "INCLINATION": 0.0105, "RA_OF_ASC_NODE": 101.923, "ARG_OF_PERICENTER": 72.498, "MEAN_ANOMALY": 340.6718, "EPHEMERIS_TYPE": 0, "CLASSIFICATION_TYPE": "U", "NORAD_CAT_ID": 39360, "ELEMENT_SET_NO": 999, "REV_AT_EPOCH": 4412, "BSTAR": 0, "MEAN_MOTION_DOT": -3e-08, "MEAN_MOTION_DDOT": 0}, "tle": {"line1": "1 39360U 13058A   25338.54896156 -.00000003  00000+0  00000+0 0  9995", "line2": "2 39360   0.0105 101.9230 0002865  72.4980 340.6718  1.00272980 44125"}}, "geometry": {"type": "Point", "coordinates": [31.139237747654327, -0.006665249060109385]}}, {"type": "Feature", "properties": {"norad_id": 40271, "name": "INTELSAT 30 (IS-30)", "group": "intelsat", "lat": 0.026754468217385335, "lon": 52.24157299916602, "alt_km": 35782.26441909298, "timestamp": "2025-12-05T04:52:14.989500+00:00", "meta": {"OBJECT_NAME": "INTELSAT 30 (IS-30)", "OBJECT_ID": "2014-062A", "EPOCH": "2025-12-04T09:03:49.646880", "MEAN_MOTION": 1.00269366, "ECCENTRICITY": 0.0001154, "INCLINATION": 0.0161, "RA_OF_ASC_NODE": 21.4794, "ARG_OF_PERICENTER": 53.1433, "MEAN_ANOMALY": 39.7301, "EPHEMERIS_TYPE": 0, "CLASSIFICATION_TYPE": "U", "NORAD_CAT_ID": 40271, "ELEMENT_SET_NO": 999, "REV_AT_EPOCH": 483, "BSTAR": 0, "MEAN_MOTION_DOT": -1.35e-06, "MEAN_MOTION_DDOT": 0}, "tle": {"line1": "1 40271U 14062A   25338.37765795 -.00000135  00000+0  00000+0 0  9995", "line2": "2 40271   0.0161  21.4794 0001154  53.1433  39.7301  1.00269366  4832"}}, "geometry": {"type": "Point", "coordinates": [52.24157299916602, 0.026754468217385335]}}, {"type": "Feature", "properties": {"norad_id": 40333, "name": "DIRECTV 14", "group": "intelsat", "lat": 0.04187874272347796, "lon": 48.10315061887039, "alt_km": 35787.667701891376, "timestamp": "2025-12-05T04:52:14.989511+00:00", "meta": {"OBJECT_NAME": "DIRECTV 14", "OBJECT_ID": "2014-078B", "EPOCH": "2025-12-04T13:15:14.825088", "MEAN_MOTION": 1.00274953, "ECCENTRICITY": 5.88e-05, "INCLINATION": 0.0162, "RA_OF_ASC_NODE": 323.3693, "ARG_OF_PERICENTER": 256.7159, "MEAN_ANOMALY": 313.1375, "EPHEMERIS_TYPE": 0, "CLASSIFICATION_TYPE": "U", "NORAD_CAT_ID": 40333, "ELEMENT_SET_NO": 999, "REV_AT_EPOCH": 4009, "BSTAR": 0, "MEAN_MOTION_DOT": -1.11e-06, "MEAN_MOTION_DDOT": 0}, "tle": {"line1": "1 40333U 14078B   25338.55225492 -.00000111  00000+0  00000+0 0  9990", "line2": "2 40333   0.0162 323.3693 0000588 256.7159 313.1375  1.00274953 40096"}}, "geometry": {"type": "Point", "coordinates": [48.10315061887039, 0.04187874272347796]}}, {"type": "Feature", "properties": {"norad_id": 40663, "name": "DIRECTV 15", "group": "intelsat", "lat": 0.0056334579190058685, "lon": 44.451258719563924, "alt_km": 35787.70125201521, "timestamp": "2025-12-05T04:52:14.989521+00:00", "meta": {"OBJECT_NAME": "DIRECTV 15", "OBJECT_ID": "2015-026A", "EPOCH": "2025-12-04T13:14:14.921376", "MEAN_MOTION": 1.00273558, "ECCENTRICITY": 5.32e-05, "INCLINATION": 0.0427, "RA_OF_ASC_NODE": 90.6657, "ARG_OF_PERICENTER": 154.4213, "MEAN_ANOMALY": 284.2335, "EPHEMERIS_TYPE": 0, "CLASSIFICATION_TYPE": "U", "NORAD_CAT_ID": 40663, "ELEMENT_SET_NO": 999, "REV_AT_EPOCH": 3851, "BSTAR": 0, "MEAN_MOTION_DOT": -8.8e-07, "MEAN_MOTION_DDOT": 0}, "tle": {"line1": "1 40663U 15026A   25338.55156159 -.00000088  00000+0  00000+0 0  9996", "line2": "2 40663   0.0427  90.6657 0000532 154.4213 284.2335  1.00273558 38512"}}, "geometry": {"type": "Point", "coordinates": [44.451258719563924, 0.0056334579190058685]}}]}